IRIDIUM 7               
1 24793U 97020B   24142.80483714  .00000898  00000+0  30750-3 0  9993
2 24793  86.3956 340.8873 0002066  81.1694 278.9736 14.35221424415965
IRIDIUM 5               
1 24795U 97020D   24142.58158896  .00009000  00000+0  85367-3 0  9998
2 24795  86.3914 263.1795 0124319  96.9823 264.5561 14.87665884427111
IRIDIUM 4               
1 24796U 97020E   24142.61965107  .00000904  00000+0  30372-3 0  9994
2 24796  86.3949 338.1026 0002258  85.4718 274.6737 14.36145617416287
IRIDIUM 914             
1 24836U 97030A   24142.65194950  .00001009  00000+0  31443-3 0  9991
2 24836  86.3941 347.8423 0003939  80.9209 279.2435 14.40002418412866
IRIDIUM 16              
1 24841U 97030F   24142.58894649  .00000970  00000+0  31524-3 0  9997
2 24841  86.4060   9.7706 0000209  19.3386 340.7820 14.37896660410712
IRIDIUM 911             
1 24842U 97030G   24142.60548512  .00001252  00000+0  34208-3 0  9992
2 24842  86.4484   8.9131 0013208 331.3504  28.6971 14.46532524418452
IRIDIUM 17              
1 24870U 97034B   24142.26280404  .00001136  00000+0  37703-3 0  9996
2 24870  86.3990  39.4998 0001700 131.3620 228.7724 14.36991675407288
IRIDIUM 920             
1 24871U 97034C   24142.61865950  .00000944  00000+0  28935-3 0  9994
2 24871  86.4005  19.4974 0009665 299.8755  60.1484 14.40709578410184
