<?xml version="1.0" encoding="UTF-8"?>
<ndm xmlns:xsi="http://www.w3.org/2001/XMLSchema-instance" xsi:noNamespaceSchemaLocation="https://sanaregistry.org/r/ndmxml_unqualified/ndmxml-2.0.0-master-2.0.xsd">
<omm id="CCSDS_OMM_VERS" version="2.0">
<header><CREATION_DATE/><ORIGINATOR/></header><body><segment><metadata><OBJECT_NAME>IRIDIUM 7</OBJECT_NAME><OBJECT_ID>1997-020B</OBJECT_ID><CENTER_NAME>EARTH</CENTER_NAME><REF_FRAME>TEME</REF_FRAME><TIME_SYSTEM>UTC</TIME_SYSTEM><MEAN_ELEMENT_THEORY>SGP4</MEAN_ELEMENT_THEORY></metadata><data><meanElements><EPOCH>2024-05-21T19:18:57.928896</EPOCH><MEAN_MOTION>14.35221424</MEAN_MOTION><ECCENTRICITY>.0002066</ECCENTRICITY><INCLINATION>86.3956</INCLINATION><RA_OF_ASC_NODE>340.8873</RA_OF_ASC_NODE><ARG_OF_PERICENTER>81.1694</ARG_OF_PERICENTER><MEAN_ANOMALY>278.9736</MEAN_ANOMALY></meanElements><tleParameters><EPHEMERIS_TYPE>0</EPHEMERIS_TYPE><CLASSIFICATION_TYPE>U</CLASSIFICATION_TYPE><NORAD_CAT_ID>24793</NORAD_CAT_ID><ELEMENT_SET_NO>999</ELEMENT_SET_NO><REV_AT_EPOCH>41596</REV_AT_EPOCH><BSTAR>.3075E-3</BSTAR><MEAN_MOTION_DOT>.898E-5</MEAN_MOTION_DOT><MEAN_MOTION_DDOT>0</MEAN_MOTION_DDOT></tleParameters></data></segment></body></omm>
<omm id="CCSDS_OMM_VERS" version="2.0">
<header><CREATION_DATE/><ORIGINATOR/></header><body><segment><metadata><OBJECT_NAME>IRIDIUM 5</OBJECT_NAME><OBJECT_ID>1997-020D</OBJECT_ID><CENTER_NAME>EARTH</CENTER_NAME><REF_FRAME>TEME</REF_FRAME><TIME_SYSTEM>UTC</TIME_SYSTEM><MEAN_ELEMENT_THEORY>SGP4</MEAN_ELEMENT_THEORY></metadata><data><meanElements><EPOCH>2024-05-21T13:57:29.286144</EPOCH><MEAN_MOTION>14.87665884</MEAN_MOTION><ECCENTRICITY>.0124319</ECCENTRICITY><INCLINATION>86.3914</INCLINATION><RA_OF_ASC_NODE>263.1795</RA_OF_ASC_NODE><ARG_OF_PERICENTER>96.9823</ARG_OF_PERICENTER><MEAN_ANOMALY>264.5561</MEAN_ANOMALY></meanElements><tleParameters><EPHEMERIS_TYPE>0</EPHEMERIS_TYPE><CLASSIFICATION_TYPE>U</CLASSIFICATION_TYPE><NORAD_CAT_ID>24795</NORAD_CAT_ID><ELEMENT_SET_NO>999</ELEMENT_SET_NO><REV_AT_EPOCH>42711</REV_AT_EPOCH><BSTAR>.85367E-3</BSTAR><MEAN_MOTION_DOT>.9E-4</MEAN_MOTION_DOT><MEAN_MOTION_DDOT>0</MEAN_MOTION_DDOT></tleParameters></data></segment></body></omm>
<omm id="CCSDS_OMM_VERS" version="2.0">
<header><CREATION_DATE/><ORIGINATOR/></header><body><segment><metadata><OBJECT_NAME>IRIDIUM 4</OBJECT_NAME><OBJECT_ID>1997-020E</OBJECT_ID><CENTER_NAME>EARTH</CENTER_NAME><REF_FRAME>TEME</REF_FRAME><TIME_SYSTEM>UTC</TIME_SYSTEM><MEAN_ELEMENT_THEORY>SGP4</MEAN_ELEMENT_THEORY></metadata><data><meanElements><EPOCH>2024-05-21T14:52:17.852448</EPOCH><MEAN_MOTION>14.36145617</MEAN_MOTION><ECCENTRICITY>.0002258</ECCENTRICITY><INCLINATION>86.3949</INCLINATION><RA_OF_ASC_NODE>338.1026</RA_OF_ASC_NODE><ARG_OF_PERICENTER>85.4718</ARG_OF_PERICENTER><MEAN_ANOMALY>274.6737</MEAN_ANOMALY></meanElements><tleParameters><EPHEMERIS_TYPE>0</EPHEMERIS_TYPE><CLASSIFICATION_TYPE>U</CLASSIFICATION_TYPE><NORAD_CAT_ID>24796</NORAD_CAT_ID><ELEMENT_SET_NO>999</ELEMENT_SET_NO><REV_AT_EPOCH>41628</REV_AT_EPOCH><BSTAR>.30372E-3</BSTAR><MEAN_MOTION_DOT>.904E-5</MEAN_MOTION_DOT><MEAN_MOTION_DDOT>0</MEAN_MOTION_DDOT></tleParameters></data></segment></body></omm>
<omm id="CCSDS_OMM_VERS" version="2.0">
<header><CREATION_DATE/><ORIGINATOR/></header><body><segment><metadata><OBJECT_NAME>IRIDIUM 914</OBJECT_NAME><OBJECT_ID>1997-030A</OBJECT_ID><CENTER_NAME>EARTH</CENTER_NAME><REF_FRAME>TEME</REF_FRAME><TIME_SYSTEM>UTC</TIME_SYSTEM><MEAN_ELEMENT_THEORY>SGP4</MEAN_ELEMENT_THEORY></metadata><data><meanElements><EPOCH>2024-05-21T15:38:48.436800</EPOCH><MEAN_MOTION>14.40002418</MEAN_MOTION><ECCENTRICITY>.0003939</ECCENTRICITY><INCLINATION>86.3941</INCLINATION><RA_OF_ASC_NODE>347.8423</RA_OF_ASC_NODE><ARG_OF_PERICENTER>80.9209</ARG_OF_PERICENTER><MEAN_ANOMALY>279.2435</MEAN_ANOMALY></meanElements><tleParameters><EPHEMERIS_TYPE>0</EPHEMERIS_TYPE><CLASSIFICATION_TYPE>U</CLASSIFICATION_TYPE><NORAD_CAT_ID>24836</NORAD_CAT_ID><ELEMENT_SET_NO>999</ELEMENT_SET_NO><REV_AT_EPOCH>41286</REV_AT_EPOCH><BSTAR>.31443E-3</BSTAR><MEAN_MOTION_DOT>.1009E-4</MEAN_MOTION_DOT><MEAN_MOTION_DDOT>0</MEAN_MOTION_DDOT></tleParameters></data></segment></body></omm>
<omm id="CCSDS_OMM_VERS" version="2.0">
<header><CREATION_DATE/><ORIGINATOR/></header><body><segment><metadata><OBJECT_NAME>IRIDIUM 16</OBJECT_NAME><OBJECT_ID>1997-030F</OBJECT_ID><CENTER_NAME>EARTH</CENTER_NAME><REF_FRAME>TEME</REF_FRAME><TIME_SYSTEM>UTC</TIME_SYSTEM><MEAN_ELEMENT_THEORY>SGP4</MEAN_ELEMENT_THEORY></metadata><data><meanElements><EPOCH>2024-05-21T14:08:04.976736</EPOCH><MEAN_MOTION>14.37896660</MEAN_MOTION><ECCENTRICITY>.0000209</ECCENTRICITY><INCLINATION>86.4060</INCLINATION><RA_OF_ASC_NODE>9.7706</RA_OF_ASC_NODE><ARG_OF_PERICENTER>19.3386</ARG_OF_PERICENTER><MEAN_ANOMALY>340.7820</MEAN_ANOMALY></meanElements><tleParameters><EPHEMERIS_TYPE>0</EPHEMERIS_TYPE><CLASSIFICATION_TYPE>U</CLASSIFICATION_TYPE><NORAD_CAT_ID>24841</NORAD_CAT_ID><ELEMENT_SET_NO>999</ELEMENT_SET_NO><REV_AT_EPOCH>41071</REV_AT_EPOCH><BSTAR>.31524E-3</BSTAR><MEAN_MOTION_DOT>.97E-5</MEAN_MOTION_DOT><MEAN_MOTION_DDOT>0</MEAN_MOTION_DDOT></tleParameters></data></segment></body></omm>
<omm id="CCSDS_OMM_VERS" version="2.0">
<header><CREATION_DATE/><ORIGINATOR/></header><body><segment><metadata><OBJECT_NAME>IRIDIUM 911</OBJECT_NAME><OBJECT_ID>1997-030G</OBJECT_ID><CENTER_NAME>EARTH</CENTER_NAME><REF_FRAME>TEME</REF_FRAME><TIME_SYSTEM>UTC</TIME_SYSTEM><MEAN_ELEMENT_THEORY>SGP4</MEAN_ELEMENT_THEORY></metadata><data><meanElements><EPOCH>2024-05-21T14:31:53.914368</EPOCH><MEAN_MOTION>14.46532524</MEAN_MOTION><ECCENTRICITY>.0013208</ECCENTRICITY><INCLINATION>86.4484</INCLINATION><RA_OF_ASC_NODE>8.9131</RA_OF_ASC_NODE><ARG_OF_PERICENTER>331.3504</ARG_OF_PERICENTER><MEAN_ANOMALY>28.6971</MEAN_ANOMALY></meanElements><tleParameters><EPHEMERIS_TYPE>0</EPHEMERIS_TYPE><CLASSIFICATION_TYPE>U</CLASSIFICATION_TYPE><NORAD_CAT_ID>24842</NORAD_CAT_ID><ELEMENT_SET_NO>999</ELEMENT_SET_NO><REV_AT_EPOCH>41845</REV_AT_EPOCH><BSTAR>.34208E-3</BSTAR><MEAN_MOTION_DOT>.1252E-4</MEAN_MOTION_DOT><MEAN_MOTION_DDOT>0</MEAN_MOTION_DDOT></tleParameters></data></segment></body></omm>
<omm id="CCSDS_OMM_VERS" version="2.0">
<header><CREATION_DATE/><ORIGINATOR/></header><body><segment><metadata><OBJECT_NAME>IRIDIUM 17</OBJECT_NAME><OBJECT_ID>1997-034B</OBJECT_ID><CENTER_NAME>EARTH</CENTER_NAME><REF_FRAME>TEME</REF_FRAME><TIME_SYSTEM>UTC</TIME_SYSTEM><MEAN_ELEMENT_THEORY>SGP4</MEAN_ELEMENT_THEORY></metadata><data><meanElements><EPOCH>2024-05-21T06:18:26.269056</EPOCH><MEAN_MOTION>14.36991675</MEAN_MOTION><ECCENTRICITY>.00017</ECCENTRICITY><INCLINATION>86.3990</INCLINATION><RA_OF_ASC_NODE>39.4998</RA_OF_ASC_NODE><ARG_OF_PERICENTER>131.3620</ARG_OF_PERICENTER><MEAN_ANOMALY>228.7724</MEAN_ANOMALY></meanElements><tleParameters><EPHEMERIS_TYPE>0</EPHEMERIS_TYPE><CLASSIFICATION_TYPE>U</CLASSIFICATION_TYPE><NORAD_CAT_ID>24870</NORAD_CAT_ID><ELEMENT_SET_NO>999</ELEMENT_SET_NO><REV_AT_EPOCH>40728</REV_AT_EPOCH><BSTAR>.37703E-3</BSTAR><MEAN_MOTION_DOT>.1136E-4</MEAN_MOTION_DOT><MEAN_MOTION_DDOT>0</MEAN_MOTION_DDOT></tleParameters></data></segment></body></omm>
<omm id="CCSDS_OMM_VERS" version="2.0">
<header><CREATION_DATE/><ORIGINATOR/></header><body><segment><metadata><OBJECT_NAME>IRIDIUM 920</OBJECT_NAME><OBJECT_ID>1997-034C</OBJECT_ID><CENTER_NAME>EARTH</CENTER_NAME><REF_FRAME>TEME</REF_FRAME><TIME_SYSTEM>UTC</TIME_SYSTEM><MEAN_ELEMENT_THEORY>SGP4</MEAN_ELEMENT_THEORY></metadata><data><meanElements><EPOCH>2024-05-21T14:50:52.180800</EPOCH><MEAN_MOTION>14.40709578</MEAN_MOTION><ECCENTRICITY>.0009665</ECCENTRICITY><INCLINATION>86.4005</INCLINATION><RA_OF_ASC_NODE>19.4974</RA_OF_ASC_NODE><ARG_OF_PERICENTER>299.8755</ARG_OF_PERICENTER><MEAN_ANOMALY>60.1484</MEAN_ANOMALY></meanElements><tleParameters><EPHEMERIS_TYPE>0</EPHEMERIS_TYPE><CLASSIFICATION_TYPE>U</CLASSIFICATION_TYPE><NORAD_CAT_ID>24871</NORAD_CAT_ID><ELEMENT_SET_NO>999</ELEMENT_SET_NO><REV_AT_EPOCH>41018</REV_AT_EPOCH><BSTAR>.28935E-3</BSTAR><MEAN_MOTION_DOT>.944E-5</MEAN_MOTION_DOT><MEAN_MOTION_DDOT>0</MEAN_MOTION_DDOT></tleParameters></data></segment></body></omm>

</ndm>
